start=new Date('2023-05-04T00:00:00.000Z').valueOf();
sats=[{"REF_FRAME":"TEME","TLE_LINE1":"1 44724U 19074M   23123.56347718  .00015467  00000-0  10540-2 0  9999","ARG_OF_PERICENTER":"82.2571","SEMIMAJOR_AXIS":"6925.247","LAUNCH_DATE":"2019-11-11","TIME_SYSTEM":"UTC","MEAN_ANOMALY":"277.8562","EPHEMERIS_TYPE":"0","COUNTRY_CODE":"US","FILE":"3900281","GP_ID":"231193828","PERIOD":"95.590","MEAN_MOTION_DDOT":"0.0000000000000","CLASSIFICATION_TYPE":"U","DECAY_DATE":null,"EPOCH":"2023-05-03T13:31:24.428352","SITE":"AFETR","RCS_SIZE":"LARGE","NORAD_CAT_ID":"44724","INCLINATION":"53.0536","ECCENTRICITY":"0.00012740","TLE_LINE2":"2 44724  53.0536 180.4165 0001274  82.2571 277.8562 15.06432994191820","PERIAPSIS":"546.230","OBJECT_TYPE":"PAYLOAD","MEAN_ELEMENT_THEORY":"SGP4","RA_OF_ASC_NODE":"180.4165","REV_AT_EPOCH":"19182","MEAN_MOTION_DOT":"0.00015467","ELEMENT_SET_NO":"999","APOAPSIS":"547.995","OBJECT_NAME":"STARLINK-1019","OBJECT_ID":"2019-074M","CENTER_NAME":"EARTH","MEAN_MOTION":"15.06432994","BSTAR":"0.00105400000000"},{"BSTAR":"0.00098615000000","MEAN_MOTION":"15.06449481","CENTER_NAME":"EARTH","OBJECT_ID":"2019-074N","OBJECT_NAME":"STARLINK-1020","APOAPSIS":"547.921","ELEMENT_SET_NO":"999","MEAN_MOTION_DOT":"0.00014457","MEAN_ELEMENT_THEORY":"SGP4","REV_AT_EPOCH":"19154","RA_OF_ASC_NODE":"200.3860","OBJECT_TYPE":"PAYLOAD","PERIAPSIS":"546.203","TLE_LINE2":"2 44725  53.0540 200.3860 0001240  76.3774 283.7353 15.06449481191544","ECCENTRICITY":"0.00012400","INCLINATION":"53.0540","NORAD_CAT_ID":"44725","RCS_SIZE":"LARGE","SITE":"AFETR","CLASSIFICATION_TYPE":"U","DECAY_DATE":null,"EPOCH":"2023-05-03T13:39:21.935232","MEAN_MOTION_DDOT":"0.0000000000000","GP_ID":"231193078","FILE":"3900281","PERIOD":"95.589","COUNTRY_CODE":"US","MEAN_ANOMALY":"283.7353","EPHEMERIS_TYPE":"0","TIME_SYSTEM":"UTC","LAUNCH_DATE":"2019-11-11","SEMIMAJOR_AXIS":"6925.197","ARG_OF_PERICENTER":"76.3774","TLE_LINE1":"1 44725U 19074N   23123.56900388  .00014457  00000-0  98615-3 0  9996","REF_FRAME":"TEME"},{"COUNTRY_CODE":"US","MEAN_ANOMALY":"279.5897","EPHEMERIS_TYPE":"0","TIME_SYSTEM":"UTC","LAUNCH_DATE":"2019-11-11","SEMIMAJOR_AXIS":"6925.145","TLE_LINE1":"1 44726U 19074P   23123.55979639  .00018555  00000-0  12590-2 0  9991","ARG_OF_PERICENTER":"80.5258","REF_FRAME":"TEME","PERIAPSIS":"545.992","TLE_LINE2":"2 44726  53.0534 180.4351 0001469  80.5258 279.5897 15.06466536191825","ECCENTRICITY":"0.00014690","NORAD_CAT_ID":"44726","INCLINATION":"53.0534","CLASSIFICATION_TYPE":"U","DECAY_DATE":null,"EPOCH":"2023-05-03T13:26:06.408096","SITE":"AFETR","RCS_SIZE":"LARGE","FILE":"3899966","GP_ID":"231161533","PERIOD":"95.588","MEAN_MOTION_DDOT":"0.0000000000000","APOAPSIS":"548.027","ELEMENT_SET_NO":"999","REV_AT_EPOCH":"19182","RA_OF_ASC_NODE":"180.4351","MEAN_ELEMENT_THEORY":"SGP4","MEAN_MOTION_DOT":"0.00018555","OBJECT_TYPE":"PAYLOAD","BSTAR":"0.00125900000000","CENTER_NAME":"EARTH","MEAN_MOTION":"15.06466536","OBJECT_ID":"2019-074P","OBJECT_NAME":"STARLINK-1021"},{"TIME_SYSTEM":"UTC","COUNTRY_CODE":"US","EPHEMERIS_TYPE":"0","MEAN_ANOMALY":"266.3764","TLE_LINE1":"1 44727U 19074Q   23123.60343157  .00012696  00000-0  81422-4 0  9990","ARG_OF_PERICENTER":"93.7387","REF_FRAME":"TEME","LAUNCH_DATE":"2019-11-11","SEMIMAJOR_AXIS":"6717.837","TLE_LINE2":"2 44727  53.0553 210.3715 0001147  93.7387 266.3764 15.76734551191421","PERIAPSIS":"338.931","DECAY_DATE":null,"EPOCH":"2023-05-03T14:28:56.487648","CLASSIFICATION_TYPE":"U","RCS_SIZE":"LARGE","SITE":"AFETR","FILE":"3900281","GP_ID":"231193579","PERIOD":"91.328","MEAN_MOTION_DDOT":"0.0000000000000","ECCENTRICITY":"0.00011470","NORAD_CAT_ID":"44727","INCLINATION":"53.0553","ELEMENT_SET_NO":"999","APOAPSIS":"340.472","OBJECT_TYPE":"PAYLOAD","REV_AT_EPOCH":"19142","MEAN_ELEMENT_THEORY":"SGP4","RA_OF_ASC_NODE":"210.3715","MEAN_MOTION_DOT":"0.00012696","BSTAR":"0.00008142200000","CENTER_NAME":"EARTH","MEAN_MOTION":"15.76734551","OBJECT_ID":"2019-074Q","OBJECT_NAME":"STARLINK-1022"},{"OBJECT_NAME":"STARLINK-1024","OBJECT_ID":"2019-074S","MEAN_MOTION":"15.43739657","CENTER_NAME":"EARTH","BSTAR":"0.00058169000000","OBJECT_TYPE":"PAYLOAD","MEAN_MOTION_DOT":"0.00026419","RA_OF_ASC_NODE":"152.2177","REV_AT_EPOCH":"19216","MEAN_ELEMENT_THEORY":"SGP4","ELEMENT_SET_NO":"999","APOAPSIS":"442.512","MEAN_MOTION_DDOT":"0.0000000000000","GP_ID":"231161552","PERIOD":"93.280","FILE":"3899966","RCS_SIZE":"LARGE","SITE":"AFETR","DECAY_DATE":null,"CLASSIFICATION_TYPE":"U","EPOCH":"2023-05-03T10:31:32.999232","INCLINATION":"53.0187","NORAD_CAT_ID":"44729","ECCENTRICITY":"0.00108990","TLE_LINE2":"2 44729  53.0187 152.2177 0010899  15.8754 344.2590 15.43739657192160","PERIAPSIS":"427.660","REF_FRAME":"TEME","ARG_OF_PERICENTER":"15.8754","TLE_LINE1":"1 44729U 19074S   23123.43857638  .00026419  00000-0  58169-3 0  9996","SEMIMAJOR_AXIS":"6813.221","LAUNCH_DATE":"2019-11-11","TIME_SYSTEM":"UTC","MEAN_ANOMALY":"344.2590","EPHEMERIS_TYPE":"0","COUNTRY_CODE":"US"},{"PERIAPSIS":"546.251","TLE_LINE2":"2 44731  53.0535 180.3787 0001266  85.0690 275.0444 15.06428072191821","INCLINATION":"53.0535","NORAD_CAT_ID":"44731","ECCENTRICITY":"0.00012660","MEAN_MOTION_DDOT":"0.0000000000000","GP_ID":"231161800","PERIOD":"95.590","FILE":"3899966","RCS_SIZE":"LARGE","SITE":"AFETR","DECAY_DATE":null,"CLASSIFICATION_TYPE":"U","EPOCH":"2023-05-03T13:42:01.124640","MEAN_ANOMALY":"275.0444","EPHEMERIS_TYPE":"0","COUNTRY_CODE":"US","TIME_SYSTEM":"UTC","SEMIMAJOR_AXIS":"6925.263","LAUNCH_DATE":"2019-11-11","REF_FRAME":"TEME","ARG_OF_PERICENTER":"85.0690","TLE_LINE1":"1 44731U 19074U   23123.57084635  .00011207  00000-0  76951-3 0  9991","MEAN_MOTION":"15.06428072","CENTER_NAME":"EARTH","BSTAR":"0.00076951000000","OBJECT_NAME":"STARLINK-1026","OBJECT_ID":"2019-074U","APOAPSIS":"548.004","ELEMENT_SET_NO":"999","MEAN_MOTION_DOT":"0.00011207","RA_OF_ASC_NODE":"180.3787","MEAN_ELEMENT_THEORY":"SGP4","REV_AT_EPOCH":"19182","OBJECT_TYPE":"PAYLOAD"},{"OBJECT_ID":"2019-074V","OBJECT_NAME":"STARLINK-1027","BSTAR":"0.00115710000000","CENTER_NAME":"EARTH","MEAN_MOTION":"15.06453389","OBJECT_TYPE":"PAYLOAD","RA_OF_ASC_NODE":"200.1395","MEAN_ELEMENT_THEORY":"SGP4","REV_AT_EPOCH":"19155","MEAN_MOTION_DOT":"0.00017020","ELEMENT_SET_NO":"999","APOAPSIS":"547.820","CLASSIFICATION_TYPE":"U","DECAY_DATE":null,"EPOCH":"2023-05-03T14:58:58.560096","RCS_SIZE":"LARGE","SITE":"AFETR","FILE":"3900281","GP_ID":"231192829","PERIOD":"95.589","MEAN_MOTION_DDOT":"0.0000000000000","ECCENTRICITY":"0.00011120","NORAD_CAT_ID":"44732","INCLINATION":"53.0533","TLE_LINE2":"2 44732  53.0533 200.1395 0001112  83.0182 277.0933 15.06453389191554","PERIAPSIS":"546.280","TLE_LINE1":"1 44732U 19074V   23123.62428889  .00017020  00000-0  11571-2 0  9996","ARG_OF_PERICENTER":"83.0182","REF_FRAME":"TEME","LAUNCH_DATE":"2019-11-11","SEMIMAJOR_AXIS":"6925.185","TIME_SYSTEM":"UTC","COUNTRY_CODE":"US","EPHEMERIS_TYPE":"0","MEAN_ANOMALY":"277.0933"},{"MEAN_MOTION_DDOT":"0.0000000000000","GP_ID":"231136885","FILE":"3899667","PERIOD":"95.590","SITE":"AFETR","RCS_SIZE":"LARGE","DECAY_DATE":null,"EPOCH":"2023-05-03T13:20:47.592096","CLASSIFICATION_TYPE":"U","INCLINATION":"53.0525","NORAD_CAT_ID":"44733","ECCENTRICITY":"0.00010320","TLE_LINE2":"2 44733  53.0525 180.4478 0001032  90.0439 270.0668 15.06429990191999","PERIAPSIS":"546.407","REF_FRAME":"TEME","ARG_OF_PERICENTER":"90.0439","TLE_LINE1":"1 44733U 19074W   23123.55610639  .00013059  00000-0  89324-3 0  9995","SEMIMAJOR_AXIS":"6925.257","LAUNCH_DATE":"2019-11-11","TIME_SYSTEM":"UTC","EPHEMERIS_TYPE":"0","MEAN_ANOMALY":"270.0668","COUNTRY_CODE":"US","OBJECT_NAME":"STARLINK-1028","OBJECT_ID":"2019-074W","MEAN_MOTION":"15.06429990","CENTER_NAME":"EARTH","BSTAR":"0.00089324000000","OBJECT_TYPE":"PAYLOAD","MEAN_MOTION_DOT":"0.00013059","RA_OF_ASC_NODE":"180.4478","REV_AT_EPOCH":"19199","MEAN_ELEMENT_THEORY":"SGP4","ELEMENT_SET_NO":"999","APOAPSIS":"547.836"},{"TIME_SYSTEM":"UTC","COUNTRY_CODE":"US","MEAN_ANOMALY":"268.7415","EPHEMERIS_TYPE":"0","ARG_OF_PERICENTER":"91.3731","TLE_LINE1":"1 44734U 19074X   23123.63720215  .00001330  00000-0  10815-3 0  9995","REF_FRAME":"TEME","LAUNCH_DATE":"2019-11-11","SEMIMAJOR_AXIS":"6925.344","TLE_LINE2":"2 44734  53.0538 100.0818 0001371  91.3731 268.7415 15.06401337192939","PERIAPSIS":"546.260","RCS_SIZE":"LARGE","SITE":"AFETR","EPOCH":"2023-05-03T15:17:34.265760","DECAY_DATE":null,"CLASSIFICATION_TYPE":"U","MEAN_MOTION_DDOT":"0.0000000000000","PERIOD":"95.592","GP_ID":"231193829","FILE":"3900281","ECCENTRICITY":"0.00013710","INCLINATION":"53.0538","NORAD_CAT_ID":"44734","ELEMENT_SET_NO":"999","APOAPSIS":"548.159","OBJECT_TYPE":"PAYLOAD","MEAN_MOTION_DOT":"0.00001330","RA_OF_ASC_NODE":"100.0818","REV_AT_EPOCH":"19293","MEAN_ELEMENT_THEORY":"SGP4","BSTAR":"0.00010815000000","MEAN_MOTION":"15.06401337","CENTER_NAME":"EARTH","OBJECT_ID":"2019-074X","OBJECT_NAME":"STARLINK-1029"},{"BSTAR":"0.00117980000000","CENTER_NAME":"EARTH","MEAN_MOTION":"15.06452110","OBJECT_ID":"2019-074Y","OBJECT_NAME":"STARLINK-1030","APOAPSIS":"547.861","ELEMENT_SET_NO":"999","REV_AT_EPOCH":"19155","RA_OF_ASC_NODE":"200.1093","MEAN_ELEMENT_THEORY":"SGP4","MEAN_MOTION_DOT":"0.00017360","OBJECT_TYPE":"PAYLOAD","PERIAPSIS":"546.247","TLE_LINE2":"2 44735  53.0543 200.1093 0001165  83.2421 276.8701 15.06452110191550","ECCENTRICITY":"0.00011650","NORAD_CAT_ID":"44735","INCLINATION":"53.0543","EPOCH":"2023-05-03T15:09:35.589024","DECAY_DATE":null,"CLASSIFICATION_TYPE":"U","SITE":"AFETR","RCS_SIZE":"LARGE","FILE":"3900281","GP_ID":"231193079","PERIOD":"95.589","MEAN_MOTION_DDOT":"0.0000000000000","COUNTRY_CODE":"US","MEAN_ANOMALY":"276.8701","EPHEMERIS_TYPE":"0","TIME_SYSTEM":"UTC","LAUNCH_DATE":"2019-11-11","SEMIMAJOR_AXIS":"6925.189","TLE_LINE1":"1 44735U 19074Y   23123.63166191  .00017360  00000-0  11798-2 0  9993","ARG_OF_PERICENTER":"83.2421","REF_FRAME":"TEME"}];
